     2.10           N: GPS NAV DATA                         RINEX VERSION / TYPE
teqc  2013Mar15     gpsops              20140509 00:05:28UTCPGM / RUN BY / DATE
Linux 2.4.21-27.ELsmp|Opteron|gcc -static|Linux x86_64|=+   COMMENT
MADR                                    MARKER NAME         COMMENT
13407S012                               MARKER NUMBER       COMMENT
4849202.3940 -360328.9929 4114913.1862                      COMMENT
                                                            COMMENT
This data is provided as a public service by NASA/JPL.      COMMENT
No warranty is expressed or implied regarding suitability   COMMENT
for use.  For further information, contact:                 COMMENT
Dave Stowers, NASA/JPL m/s 238-600                          COMMENT
4800 Oak Grove Drive, Pasadena CA 91109 USA                 COMMENT
                                                            END OF HEADER
 3 14  5  8  2  0  0.0 3.618435002863D-04 5.002220859751D-12 0.000000000000D+00
    7.000000000000D+01-4.009375000000D+01 5.232360805973D-09 2.193688394624D+00
   -2.324581146240D-06 1.694192318246D-02 5.044043064117D-06 5.153790023804D+03
    3.528000000000D+05 1.564621925354D-07-2.524224432765D+00-2.644956111908D-07
    9.382112607449D-01 2.684687500000D+02 1.379120063121D+00-8.225342618536D-09
    1.178620522847D-11 1.000000000000D+00 1.791000000000D+03 0.000000000000D+00
    2.800000000000D+00 0.000000000000D+00-4.656612873077D-09 7.000000000000D+01
    3.456000000000D+05 4.000000000000D+00
11 14  5  8  2  0  0.0-4.870863631368D-04-3.183231456205D-12 0.000000000000D+00
    5.200000000000D+01-4.403125000000D+01 6.447411417708D-09 9.816579147239D-01
   -2.279877662659D-06 1.490294141695D-02 8.471310138702D-06 5.153701641083D+03
    3.528000000000D+05-2.719461917877D-07-1.643114824773D+00 4.284083843231D-08
    8.901347124265D-01 1.840312500000D+02 1.280776517300D+00-9.163238828535D-09
   -1.942938074027D-10 1.000000000000D+00 1.791000000000D+03 0.000000000000D+00
    2.000000000000D+00 0.000000000000D+00-1.210719347000D-08 5.200000000000D+01
    3.456000000000D+05 4.000000000000D+00
19 14  5  8  2  0  0.0-4.555662162602D-04-2.273736754432D-12 0.000000000000D+00
    7.600000000000D+01-4.831250000000D+01 4.641621913612D-09 2.786735258595D+00
   -2.548098564148D-06 1.028927788138D-02 6.495043635368D-06 5.153609661102D+03
    3.528000000000D+05-1.583248376846D-07-2.279236239269D+00-1.136213541031D-07
    9.655358026246D-01 2.577812500000D+02 4.229475213705D-01-7.963545999370D-09
   -2.392956819114D-11 1.000000000000D+00 1.791000000000D+03 0.000000000000D+00
    2.000000000000D+00 0.000000000000D+00-1.490116119385D-08 7.600000000000D+01
    3.456000000000D+05 4.000000000000D+00
27 14  5  8  2  0  0.0-1.732772216201D-05 1.591615728103D-12 0.000000000000D+00
    2.600000000000D+01-3.946875000000D+01 4.733054293567D-09-2.618313455859D+00
   -2.089887857437D-06 1.205154461786D-03 6.053596735001D-06 5.153672985077D+03
    3.528000000000D+05-7.264316082001D-08-2.375524374948D+00-5.587935447693D-08
    9.632056228204D-01 2.654687500000D+02 1.065125462065D-01-8.178912113090D-09
   -7.857470152314D-12 1.000000000000D+00 1.791000000000D+03 0.000000000000D+00
    2.000000000000D+00 0.000000000000D+00 1.862645149231D-09 2.600000000000D+01
    3.456000000000D+05 4.000000000000D+00
28 14  5  8  2  0  0.0 3.530825488269D-04 2.842170943040D-12 0.000000000000D+00
    4.800000000000D+01 2.400000000000D+01 4.007666935414D-09-1.876212026596D+00
    1.540407538414D-06 1.913033716846D-02 6.239861249924D-06 5.153671077728D+03
    3.528000000000D+05 3.241002559662D-07 2.927123050996D+00 2.104789018631D-07
    9.867722353673D-01 2.670312500000D+02-1.715593282604D+00-7.706035273015D-09
    3.793015137162D-10 1.000000000000D+00 1.791000000000D+03 0.000000000000D+00
    2.000000000000D+00 0.000000000000D+00-1.071020960808D-08 4.800000000000D+01
    3.456000000000D+05 4.000000000000D+00
32 14  5  8  2  0  0.0-4.336396232247D-04 8.071765478235D-12 0.000000000000D+00
    3.800000000000D+01 4.587500000000D+01 4.842701717965D-09 1.385665559447D+00
    2.438202500343D-06 1.141289458610D-02 7.195398211479D-06 5.153747247696D+03
    3.528000000000D+05 2.607703208923D-08-1.931997845979D-01 2.365559339523D-07
    9.481416247387D-01 2.321562500000D+02-1.619556360680D-01-8.181769374964D-09
   -9.964700784071D-11 1.000000000000D+00 1.791000000000D+03 0.000000000000D+00
    2.000000000000D+00 0.000000000000D+00-3.259629011154D-09 3.800000000000D+01
    3.456000000000D+05 4.000000000000D+00
 1 14  5  8  2  0  0.0 1.145247370005D-05 1.364242052659D-12 0.000000000000D+00
    1.600000000000D+01-2.578125000000D+01 4.604477509256D-09 1.443663717657D+00
   -1.173466444016D-06 2.998432028107D-03 9.641051292419D-06 5.153683155060D+03
    3.528000000000D+05 3.539025783539D-08-1.320466244045D+00 7.636845111847D-08
    9.605368740335D-01 1.923125000000D+02 3.070276892328D-01-8.051763959717D-09
   -1.450060400836D-10 1.000000000000D+00 1.791000000000D+03 0.000000000000D+00
    2.000000000000D+00 0.000000000000D+00 5.587935447693D-09 1.600000000000D+01
    3.456300000000D+05 4.000000000000D+00
14 14  5  8  2  0  0.0 1.748707145452D-04-3.410605131648D-12 0.000000000000D+00
    2.200000000000D+01 0.000000000000D+00 4.239462304908D-09-2.792042640537D+00
    6.891787052155D-08 7.442397298291D-03 6.098300218582D-06 5.153653240204D+03
    3.528000000000D+05 1.303851604462D-08 8.434410313102D-01-6.891787052155D-08
    9.704525444781D-01 2.670000000000D+02-2.001598808316D+00-7.869256357542D-09
   -1.121475285376D-10 1.000000000000D+00 1.791000000000D+03 0.000000000000D+00
    2.000000000000D+00 0.000000000000D+00-9.313225746155D-09 2.200000000000D+01
    3.456300000000D+05 4.000000000000D+00
20 14  5  8  1 59 44.0 1.872293651104D-04 3.865352482535D-12 0.000000000000D+00
    7.000000000000D+00 4.212500000000D+01 5.420225774160D-09-5.917057850239D-01
    2.181157469749D-06 5.788020091131D-03 7.707625627518D-06 5.153801065445D+03
    3.527840000000D+05-2.421438694000D-08-3.399212354724D-01 8.940696716309D-08
    9.271370469566D-01 2.120000000000D+02 1.331866017086D+00-8.595358031163D-09
    6.035965707914D-11 1.000000000000D+00 1.791000000000D+03 0.000000000000D+00
    2.000000000000D+00 0.000000000000D+00-8.381903171539D-09 7.000000000000D+00
    3.456300000000D+05 4.000000000000D+00
16 14  5  8  2  0  0.0-2.195518463850D-04 1.932676241267D-12 0.000000000000D+00
    5.000000000000D+00 1.365625000000D+01 4.033382292276D-09-1.773514337717D+00
    3.837049007416D-07 7.742079324089D-03 6.463378667831D-06 5.153584938049D+03
    3.528000000000D+05 5.587935447693D-08 2.921323312270D+00-9.313225746155D-08
    9.882498645507D-01 2.687187500000D+02 1.956762240259D-01-7.876042354492D-09
    3.703725703613D-10 1.000000000000D+00 1.791000000000D+03 0.000000000000D+00
    2.000000000000D+00 0.000000000000D+00-1.024454832077D-08 5.000000000000D+00
    3.456300000000D+05 4.000000000000D+00
22 14  5  8  1 59 44.0 2.325340174139D-04 3.069544618484D-12 0.000000000000D+00
    7.900000000000D+01 4.053125000000D+01 5.314149927104D-09-1.675742018981D+00
    2.019107341766D-06 7.159929024056D-03 7.569789886475D-06 5.153726602554D+03
    3.527840000000D+05 1.750886440277D-07-2.849170766256D-01 0.000000000000D+00
    9.239533290620D-01 2.148437500000D+02-2.059547364826D+00-8.357490980188D-09
    1.071473202588D-11 1.000000000000D+00 1.791000000000D+03 0.000000000000D+00
    2.000000000000D+00 0.000000000000D+00-1.722946763039D-08 7.900000000000D+01
    3.456300000000D+05 4.000000000000D+00
23 14  5  8  2  0  0.0-1.868978142738D-05-3.069544618484D-12 0.000000000000D+00
    8.000000000000D+01 1.028125000000D+01 4.757698177226D-09 2.468641193889D+00
    4.563480615616D-07 9.245546767488D-03 6.278976798058D-06 5.153556497574D+03
    3.528000000000D+05-1.769512891769D-07 7.784463664443D-01-4.470348358154D-08
    9.521381062711D-01 2.550000000000D+02-2.787060441877D+00-8.183198005901D-09
   -1.942938074027D-10 1.000000000000D+00 1.791000000000D+03 0.000000000000D+00
    2.000000000000D+00 0.000000000000D+00-2.002343535423D-08 8.000000000000D+01
    3.495300000000D+05 4.000000000000D+00
19 14  5  8  1 59 44.0-4.555676132441D-04-2.273736754432D-12 0.000000000000D+00
    0.000000000000D+00-4.831250000000D+01 4.641621913612D-09 2.784401567787D+00
   -2.548098564148D-06 1.028927869629D-02 6.495043635368D-06 5.153609655380D+03
    3.527840000000D+05-1.583248376846D-07-2.279236110533D+00-1.136213541031D-07
    9.655358040875D-01 2.577812500000D+02 4.229474730942D-01-7.963545999370D-09
   -2.428672592533D-11 1.000000000000D+00 1.791000000000D+03 0.000000000000D+00
    2.000000000000D+00 0.000000000000D+00-1.490116119385D-08 0.000000000000D+00
    3.496800000000D+05 4.000000000000D+00
17 14  5  8  2  0  0.0-9.134691208601D-05-3.069544618484D-12 0.000000000000D+00
    1.330000000000D+02-5.009375000000D+01 4.653408118841D-09-2.725624208206D+00
   -2.499669790268D-06 9.286482585594D-03 5.947425961494D-06 5.153586219788D+03
    3.528000000000D+05 2.086162567139D-07-2.330108377224D+00-8.754432201385D-08
    9.684413495723D-01 2.661562500000D+02-2.099277103843D+00-8.092122783681D-09
   -3.678724662220D-11 1.000000000000D+00 1.791000000000D+03 0.000000000000D+00
    2.000000000000D+00 0.000000000000D+00-1.024454832077D-08 1.330000000000D+02
    3.510600000000D+05 4.000000000000D+00
23 14  5  8  1 59 44.0-1.868931576610D-05-3.069544618484D-12 0.000000000000D+00
    1.400000000000D+01 1.028125000000D+01 4.757341019492D-09 2.466307094927D+00
    4.563480615616D-07 9.245547815226D-03 6.278976798058D-06 5.153556493759D+03
    3.527840000000D+05-1.769512891769D-07 7.784465010328D-01-4.470348358154D-08
    9.521381121227D-01 2.550000000000D+02-2.787060215125D+00-8.183198005901D-09
   -1.942938074027D-10 1.000000000000D+00 1.791000000000D+03 0.000000000000D+00
    2.000000000000D+00 0.000000000000D+00-2.002343535423D-08 1.400000000000D+01
    3.524400000000D+05 4.000000000000D+00
